{
    "links": {
        "self": "http://www.neowsapp.com/rest/v1/neo/3670726?api_key=iIulBulltgU6a56xZRHN4H3l9WmuAYTsLGpBGhQ2"
    },
    "id": "3670726",
    "neo_reference_id": "3670726",
    "name": "(2014 HS190)",
    "designation": "2014 HS190",
    "nasa_jpl_url": "http://ssd.jpl.nasa.gov/sbdb.cgi?sstr=3670726",
    "absolute_magnitude_h": 23.6,
    "estimated_diameter": {
        "kilometers": {
            "estimated_diameter_min": 0.0506471459,
            "estimated_diameter_max": 0.1132504611
        },
        "meters": {
            "estimated_diameter_min": 50.6471458835,
            "estimated_diameter_max": 113.2504610618
        },
        "miles": {
            "estimated_diameter_min": 0.0314706677,
            "estimated_diameter_max": 0.0703705522
        },
        "feet": {
            "estimated_diameter_min": 166.1651821003,
            "estimated_diameter_max": 371.5566426699
        }
    },
    "is_potentially_hazardous_asteroid": false,
    "close_approach_data": [
        {
            "close_approach_date": "2014-04-13",
            "close_approach_date_full": "2014-Apr-13 14:29",
            "epoch_date_close_approach": 1397399340000,
            "relative_velocity": {
                "kilometers_per_second": "6.7041238041",
                "kilometers_per_hour": "24134.8456946573",
                "miles_per_hour": "14996.4545373275"
            },
            "miss_distance": {
                "astronomical": "0.2070454619",
                "lunar": "80.5406846791",
                "kilometers": "30973560.093406153",
                "miles": "19246077.7895567914"
            },
            "orbiting_body": "Earth"
        }
    ],
    "orbital_data": {
        "orbit_id": "8",
        "orbit_determination_date": "2017-04-06 08:41:10",
        "first_observation_date": "2014-04-28",
        "last_observation_date": "2014-05-05",
        "data_arc_in_days": 7,
        "observations_used": 15,
        "orbit_uncertainty": "9",
        "minimum_orbit_intersection": ".155339",
        "jupiter_tisserand_invariant": "4.758",
        "epoch_osculation": "2456778.5",
        "eccentricity": ".2071830821398154",
        "semi_major_axis": "1.377396561582808",
        "inclination": "13.04950076952487",
        "ascending_node_longitude": "31.23199935037845",
        "orbital_period": "590.4551550741049",
        "perihelion_distance": "1.092023296625298",
        "perihelion_argument": "122.5199862969141",
        "aphelion_distance": "1.662769826540319",
        "perihelion_time": "2456699.683025838406",
        "mean_anomaly": "48.05464132938725",
        "mean_motion": ".6096991395643219",
        "equinox": "J2000",
        "orbit_class": {
            "orbit_class_type": "AMO",
            "orbit_class_description": "Near-Earth asteroid orbits similar to that of 1221 Amor",
            "orbit_class_range": "1.017 AU < q (perihelion) < 1.3 AU"
        }
    },
    "is_sentry_object": false
}